     2.100          NAVIGATION                              RINEX VERSION / TYPE
fic2rin                                 02/26/2012 00:07:26 PGM / RUN BY / DATE
                                                            END OF HEADER
23 12  2 25  1 59 44.0  .229886267334D-03 -.341060513165D-11  .000000000000D+00
     .170000000000D+02 -.605312500000D+02  .474448334106D-08 -.102358506934D+01
    -.325404107571D-05  .757529400289D-02  .520609319210D-05  .515366498375D+04
     .525584000000D+06  .670552253723D-07  .263068776787D+01 -.726431608200D-07
     .961233242057D+00  .275593750000D+03 -.302920933521D+01 -.833070415012D-08
    -.263225250103D-09  .100000000000D+01  .167600000000D+04  .000000000000D+00
     .240000000000D+01  .000000000000D+00 -.200234353542D-07  .170000000000D+02
     .524856000000D+06  .400000000000D+01
23 12  2 25  3 59 44.0  .229861121625D-03 -.341060513165D-11  .000000000000D+00
     .180000000000D+02 -.583750000000D+02  .473198282036D-08  .265806904610D-01
    -.300630927086D-05  .757549668197D-02  .518374145031D-05  .515366517448D+04
     .532784000000D+06  .838190317154D-07  .263062772240D+01  .186264514923D-07
     .961230926258D+00  .278593750000D+03 -.302918713104D+01 -.839749264642D-08
    -.298583865788D-09  .100000000000D+01  .167600000000D+04  .000000000000D+00
     .240000000000D+01  .000000000000D+00 -.200234353542D-07  .180000000000D+02
     .525606000000D+06  .400000000000D+01
29 12  2 25  3 59 44.0  .287903007120D-03  .363797880709D-11  .000000000000D+00
     .340000000000D+02 -.596562500000D+02  .467733768703D-08 -.221359553076D+01
    -.317022204399D-05  .226597674191D-02  .587664544582D-05  .515362470818D+04
     .532784000000D+06  .130385160446D-07 -.481226700292D+00  .484287738800D-07
     .963168442757D+00  .265718750000D+03 -.118992167107D+01 -.817141180067D-08
    -.422874757288D-09  .100000000000D+01  .167600000000D+04  .000000000000D+00
     .240000000000D+01  .000000000000D+00 -.931322574615D-08  .340000000000D+02
     .525606000000D+06  .400000000000D+01
 1 12  2 25  4  0  0.0  .219408888370D-03  .886757334229D-11  .000000000000D+00
     .103000000000D+03  .131562500000D+02  .419910348094D-08 -.164469067428D+01
     .663101673126D-06  .567652401514D-03  .120792537928D-04  .515366416931D+04
     .532800000000D+06  .316649675369D-07  .517181355799D+00 -.353902578354D-07
     .960559234736D+00  .149187500000D+03  .858437286044D+00 -.778853870961D-08
    -.115719105880D-09  .100000000000D+01  .167600000000D+04  .000000000000D+00
     .240000000000D+01  .000000000000D+00  .838190317154D-08  .103000000000D+03
     .525606000000D+06  .400000000000D+01
 2 12  2 25  4  0  0.0  .380363781005D-03  .147792889038D-11  .000000000000D+00
     .690000000000D+02  .587500000000D+01  .488413201513D-08 -.467479027121D-01
     .266358256340D-06  .109601458535D-01  .117961317301D-04  .515365579987D+04
     .532800000000D+06  .169500708580D-06  .505444557155D+00  .689178705215D-07
     .939128744447D+00  .142156250000D+03 -.285661575239D+01 -.830427447779D-08
    -.149291932894D-09  .100000000000D+01  .167600000000D+04  .000000000000D+00
     .240000000000D+01  .000000000000D+00 -.172294676304D-07  .690000000000D+02
     .525606000000D+06  .400000000000D+01
 3 12  2 25  4  0  0.0  .140909105539D-04  .500222085975D-11  .000000000000D+00
     .390000000000D+02 -.506562500000D+02  .566916471489D-08  .903611874490D-01
    -.247545540333D-05  .150369002949D-01  .465661287308D-05  .515370276642D+04
     .532800000000D+06 -.135973095894D-06 -.656562919498D+00  .122934579849D-06
     .930620304643D+00  .273156250000D+03  .117218073918D+01 -.900787521416D-08
    -.350728894981D-09  .100000000000D+01  .167600000000D+04  .000000000000D+00
     .240000000000D+01  .000000000000D+00 -.419095158577D-08  .390000000000D+02
     .525606000000D+06  .400000000000D+01
 4 12  2 25  4  0  0.0  .104321166873D-03  .114823706099D-10  .000000000000D+00
     .470000000000D+02  .139687500000D+02  .466305137766D-08  .303253402867D+01
     .614672899246D-06  .996309588663D-02  .122319906950D-04  .515381159592D+04
     .532800000000D+06  .242143869400D-07  .522458686479D+00 -.122934579849D-06
     .938182015550D+00  .130062500000D+03  .832031990684D+00 -.790747223510D-08
    -.102147111980D-09  .100000000000D+01  .167600000000D+04  .000000000000D+00
     .240000000000D+01  .000000000000D+00 -.605359673500D-08  .470000000000D+02
     .525606000000D+06  .400000000000D+01
 5 12  2 25  4  0  0.0 -.286732800305D-03 -.443378667114D-11  .000000000000D+00
     .290000000000D+02  .814375000000D+02  .494199156807D-08  .186899796939D+01
     .423379242420D-05  .269167276565D-02  .553391873837D-05  .515360914421D+04
     .532800000000D+06  .931322574615D-08  .156847142812D+01 -.260770320892D-07
     .951361094888D+00  .269000000000D+03  .295562301390D+00 -.839570685775D-08
     .342157109360D-09  .100000000000D+01  .167600000000D+04  .000000000000D+00
     .240000000000D+01  .000000000000D+00 -.102445483208D-07  .290000000000D+02
     .525606000000D+06  .400000000000D+01
 6 12  2 25  4  0  0.0  .311145558953D-04  .909494701773D-12  .000000000000D+00
     .410000000000D+02 -.616562500000D+02  .538272421207D-08  .201946736665D+01
    -.303238630295D-05  .705580052454D-02  .478513538837D-05  .515369819641D+04
     .532800000000D+06  .141561031342D-06 -.580674086561D+00  .353902578354D-07
     .937621840810D+00  .271562500000D+03 -.605324389322D+00 -.855964225774D-08
    -.450018745087D-09  .100000000000D+01  .167600000000D+04  .000000000000D+00
     .240000000000D+01  .000000000000D+00 -.512227416039D-08  .410000000000D+02
     .525606000000D+06  .400000000000D+01
 7 12  2 25  4  0  0.0  .596698373556D-04  .284217094304D-11  .000000000000D+00
     .600000000000D+02 -.584375000000D+01  .395552190622D-08 -.154897870303D+01
    -.482425093651D-06  .510548078455D-02  .117253512144D-04  .515362498283D+04
     .532800000000D+06  .316649675369D-07 -.260528198057D+01 -.502914190292D-07
     .975914891870D+00  .160906250000D+03 -.301037317653D+01 -.770103506474D-08
     .134648465792D-09  .100000000000D+01  .167600000000D+04  .000000000000D+00
     .240000000000D+01  .000000000000D+00 -.107102096081D-07  .600000000000D+02
     .525606000000D+06  .400000000000D+01
 8 12  2 25  4  0  0.0  .676605850458D-06  .000000000000D+00  .000000000000D+00
     .370000000000D+02  .653125000000D+01  .342978572149D-08 -.215265967505D+01
     .689178705215D-07  .120939017506D-01  .126380473375D-04  .515371111298D+04
     .532800000000D+06 -.204890966415D-07 -.252398741078D+01 -.219792127609D-06
     .997936724367D+00  .156843750000D+03 -.297919637636D+01 -.741495171964D-08
     .238938524177D-09  .100000000000D+01  .167600000000D+04  .000000000000D+00
     .240000000000D+01  .000000000000D+00 -.465661287308D-08  .370000000000D+02
     .525606000000D+06  .400000000000D+01
 9 12  2 25  4  0  0.0  .140766613185D-03  .250111042988D-11  .000000000000D+00
     .470000000000D+02 -.201250000000D+02  .369729686440D-08 -.221124973723D+01
    -.957399606705D-06  .172181412345D-01  .116582959890D-04  .515363748741D+04
     .532800000000D+06  .242143869400D-06 -.263167893729D+01  .968575477600D-07
     .984711500204D+00  .161875000000D+03  .160457927310D+01 -.733244828305D-08
     .796461747257D-10  .100000000000D+01  .167600000000D+04  .000000000000D+00
     .240000000000D+01  .000000000000D+00 -.558793544769D-08  .470000000000D+02
     .525606000000D+06  .400000000000D+01
10 12  2 25  4  0  0.0 -.301287509501D-04 -.125055521494D-11  .000000000000D+00
     .480000000000D+02  .799375000000D+02  .502270921600D-08  .224900738368D+01
     .401958823204D-05  .111915334128D-01  .521168112755D-05  .515367450905D+04
     .532800000000D+06 -.109896063805D-06  .159057659868D+01 -.195577740669D-06
     .946249499661D+00  .271937500000D+03  .745409762909D+00 -.841249327125D-08
     .382873091058D-09  .100000000000D+01  .167600000000D+04  .000000000000D+00
     .240000000000D+01  .000000000000D+00 -.232830643654D-08  .480000000000D+02
     .525606000000D+06  .400000000000D+01
11 12  2 25  4  0  0.0 -.235706102103D-03 -.363797880709D-11  .000000000000D+00
     .740000000000D+02 -.238437500000D+02  .593381859593D-08 -.138942650678D+01
    -.123307108879D-05  .127579325344D-01  .105947256088D-04  .515368014526D+04
     .532800000000D+06  .318512320518D-06  .254139195198D+00  .204890966415D-06
     .888523578802D+00  .134312500000D+03  .103013616718D+01 -.860857286733D-08
    -.299655338991D-09  .100000000000D+01  .167600000000D+04  .000000000000D+00
     .240000000000D+01  .000000000000D+00 -.116415321827D-07  .740000000000D+02
     .525606000000D+06  .400000000000D+01
12 12  2 25  4  0  0.0  .543831847608D-04  .216004991671D-11  .000000000000D+00
     .980000000000D+02  .402500000000D+02  .445911431144D-08 -.167937973302D+01
     .216066837311D-05  .388322561048D-02  .603683292866D-05  .515355661964D+04
     .532800000000D+06  .502914190292D-07 -.154934309691D+01 -.108033418655D-06
     .978308661797D+00  .272031250000D+03 -.562781600741D-01 -.809176562595D-08
     .453947480163D-09  .100000000000D+01  .167600000000D+04  .000000000000D+00
     .240000000000D+01  .000000000000D+00 -.121071934700D-07  .980000000000D+02
     .525606000000D+06  .400000000000D+01
13 12  2 25  4  0  0.0  .223029870540D-03 -.216004991671D-11  .000000000000D+00
     .790000000000D+02 -.613750000000D+02  .408195574413D-08  .839240401023D+00
    -.325217843056D-05  .480516976677D-02  .623799860477D-05  .515370899391D+04
     .532800000000D+06 -.651925802231D-07  .270707789456D+01 -.707805156708D-07
     .986822240833D+00  .271687500000D+03  .194038749830D+01 -.801783397497D-08
    -.328585115460D-09  .100000000000D+01  .167600000000D+04  .000000000000D+00
     .240000000000D+01  .000000000000D+00 -.111758708954D-07  .790000000000D+02
     .525606000000D+06  .400000000000D+01
